NORAD_CAT_ID,OBJECT_NAME,OBJECT_TYPE,EPOCH,MEAN_MOTION,ECCENTRICITY,INCLINATION,RA_OF_ASC_NODE,ARG_OF_PERICENTER,MEAN_ANOMALY,BSTAR,MEAN_MOTION_DOT,MEAN_MOTION_DDOT,TLE_LINE0,TLE_LINE1,TLE_LINE2,SEMIMAJOR_AXIS,PERIOD,APOGEE,PERIGEE,DECAYED
53607.0,STARLINK-4591,PAYLOAD,2024-02-22 13:22:12,15.08840061,0.0001706,53.2215,348.6893,98.8732,261.2453,9.3838e-05,1.206e-05,0.0,0 STARLINK-4591,1 53607U 22104V   24053.55709033  .00001206  00000-0  93838-4 0  9990,2 53607  53.2215 348.6893 0001706  98.8732 261.2453 15.08840061 83044,6917.88,95.438,540.925,538.565,0.0
53607.0,STARLINK-4591,PAYLOAD,2024-02-22 22:54:30,15.08844821,0.0001365,53.2188,346.9052,109.7153,250.3987,0.00011437,1.533e-05,0.0,0 STARLINK-4591,1 53607U 22104V   24053.95452535  .00001533  00000-0  11437-3 0  9993,2 53607  53.2188 346.9052 0001365 109.7153 250.3987 15.08844821 83107,6917.866,95.437,540.675,538.786,0.0
53607.0,STARLINK-4591,PAYLOAD,2024-02-23 02:05:17,15.08837017,0.0001589,53.22,346.311,107.1358,252.9808,0.00032431,4.877e-05,0.0,0 STARLINK-4591,1 53607U 22104V   24054.08700471  .00004877  00000-0  32431-3 0  9994,2 53607  53.2200 346.3110 0001589 107.1358 252.9808 15.08837017 82432,6917.89,95.438,540.854,538.655,0.0
53607.0,STARLINK-4591,PAYLOAD,2024-02-23 05:16:03,15.08818472,0.0001901,53.2199,345.7159,110.1208,249.9989,0.00065225,0.00010102,0.0,0 STARLINK-4591,1 53607U 22104V   24054.21949045  .00010102  00000-0  65225-3 0  9996,2 53607  53.2199 345.7159 0001901 110.1208 249.9989 15.08818472 82453,6917.946,95.439,541.126,538.496,0.0
53607.0,STARLINK-4591,PAYLOAD,2024-02-23 22:45:18,15.0883468,0.000159,53.2183,342.4415,124.3962,235.718,8.0398e-05,9.92e-06,0.0,0 STARLINK-4591,1 53607U 22104V   24054.94813269  .00000992  00000-0  80398-4 0  9999,2 53607  53.2183 342.4415 0001590 124.3962 235.7180 15.08834680 83257,6917.897,95.438,540.862,538.662,0.0
53607.0,STARLINK-4591,PAYLOAD,2024-02-24 11:28:23,15.08839223,0.0001557,53.2196,340.0676,91.0274,269.0897,4.4822e-05,4.25e-06,0.0,0 STARLINK-4591,1 53607U 22104V   24055.47805524  .00000425  00000-0  44822-4 0  9996,2 53607  53.2196 340.0676 0001557  91.0274 269.0897 15.08839223 82648,6917.883,95.438,540.825,538.671,0.0
53607.0,STARLINK-4591,PAYLOAD,2024-02-25 11:19:10,15.08851009,0.0001453,53.2187,335.6069,91.7574,268.3585,1.9688e-05,2.5e-07,0.0,0 STARLINK-4591,1 53607U 22104V   24056.47164603  .00000025  00000-0  19688-4 0  9991,2 53607  53.2187 335.6069 0001453  91.7574 268.3585 15.08851009 82797,6917.847,95.437,540.717,538.707,0.0
53607.0,STARLINK-4591,PAYLOAD,2024-02-25 19:16:06,15.08838518,0.0001409,53.2189,334.1202,88.8417,271.2736,0.00011506,1.544e-05,0.0,0 STARLINK-4591,1 53607U 22104V   24056.80285346  .00001544  00000-0  11506-3 0  9993,2 53607  53.2189 334.1202 0001409  88.8417 271.2736 15.08838518 82843,6917.885,95.438,540.725,538.775,0.0
53607.0,STARLINK-4591,PAYLOAD,2024-02-25 22:26:52,15.08844369,0.0001502,53.2201,333.5309,105.6598,254.456,0.00016545,2.346e-05,0.0,0 STARLINK-4591,1 53607U 22104V   24056.93532880  .00002346  00000-0  16545-3 0  9994,2 53607  53.2201 333.5309 0001502 105.6598 254.4560 15.08844369 83559,6917.867,95.437,540.771,538.693,0.0
53607.0,STARLINK-4591,PAYLOAD,2024-02-26 01:37:38,15.08850405,0.0001588,53.219,332.9369,117.3001,242.8153,0.0001484,2.075e-05,0.0,0 STARLINK-4591,1 53607U 22104V   24057.06780476  .00002075  00000-0  14840-3 0  9990,2 53607  53.2190 332.9369 0001588 117.3001 242.8153 15.08850405 82880,6917.849,95.437,540.812,538.615,0.0
53607.0,STARLINK-4591,PAYLOAD,2024-02-26 22:17:39,15.08841214,0.0001485,53.2187,329.0723,116.2078,243.9067,7.6092e-06,-1.67e-06,0.0,0 STARLINK-4591,1 53607U 22104V   24057.92892945 -.00000167  00000-0  76092-5 0  9990,2 53607  53.2187 329.0723 0001485 116.2078 243.9067 15.08841214 83701,6917.877,95.437,540.769,538.714,0.0
53607.0,STARLINK-4591,PAYLOAD,2024-02-27 03:03:48,15.08841638,0.0001173,53.2167,328.1775,101.379,258.7334,7.9111e-05,9.71e-06,0.0,0 STARLINK-4591,1 53607U 22104V   24058.12764884  .00000971  00000-0  79111-4 0  9999,2 53607  53.2167 328.1775 0001173 101.3790 258.7334 15.08841638 83044,6917.875,95.437,540.552,538.929,0.0
53607.0,STARLINK-4591,PAYLOAD,2024-02-27 11:00:45,15.08830004,0.0001299,53.2179,326.6875,88.1088,272.0053,-3.7532e-05,-8.85e-06,0.0,0 STARLINK-4591,1 53607U 22104V   24058.45885590 -.00000885  00000-0 -37532-4 0  9990,2 53607  53.2179 326.6875 0001299  88.1088 272.0053 15.08830004 83099,6917.911,95.438,540.675,538.877,0.0
53607.0,STARLINK-4591,PAYLOAD,2024-02-27 22:08:27,15.08829948,0.0001656,53.2177,324.6105,94.2184,265.8997,-6.3632e-05,-1.3e-05,0.0,0 STARLINK-4591,1 53607U 22104V   24058.92254028 -.00001300  00000-0 -63632-4 0  9991,2 53607  53.2177 324.6105 0001656  94.2184 265.8997 15.08829948 83859,6917.911,95.438,540.922,538.631,0.0
53607.0,STARLINK-4591,PAYLOAD,2024-02-28 10:51:32,15.08834914,0.000131,53.217,322.2301,93.9937,266.1205,7.9224e-05,9.73e-06,0.0,0 STARLINK-4591,1 53607U 22104V   24059.45246176  .00000973  00000-0  79224-4 0  9992,2 53607  53.2170 322.2301 0001310  93.9937 266.1205 15.08834914 83937,6917.896,95.438,540.667,538.855,0.0
53607.0,STARLINK-4591,PAYLOAD,2024-02-28 17:13:05,15.08838571,0.0001304,53.2171,321.0397,93.172,266.9421,9.77e-05,1.267e-05,0.0,0 STARLINK-4591,1 53607U 22104V   24059.71741999  .00001267  00000-0  97700-4 0  9990,2 53607  53.2171 321.0397 0001304  93.1720 266.9421 15.08838571 83284,6917.885,95.438,540.652,538.848,0.0
53607.0,STARLINK-4591,PAYLOAD,2024-02-28 21:59:14,15.08840666,0.0001301,53.2169,320.1478,93.2462,266.8679,0.00012011,1.624e-05,0.0,0 STARLINK-4591,1 53607U 22104V   24059.91613876  .00001624  00000-0  12011-3 0  9992,2 53607  53.2169 320.1478 0001301  93.2462 266.8679 15.08840666 84005,6917.878,95.438,540.643,538.843,0.0
53607.0,STARLINK-4591,PAYLOAD,2024-02-29 10:42:19,15.08843592,0.0001391,53.2161,317.768,88.297,271.8182,0.00019336,2.791e-05,0.0,0 STARLINK-4591,1 53607U 22104V   24060.44605971  .00002791  00000-0  19336-3 0  9992,2 53607  53.2161 317.7680 0001391  88.2970 271.8182 15.08843592 84085,6917.869,95.437,540.697,538.772,0.0
53607.0,STARLINK-4591,PAYLOAD,2024-02-29 20:14:38,15.08837184,0.0001525,53.216,315.9837,90.402,269.7147,0.00028918,4.317e-05,0.0,0 STARLINK-4591,1 53607U 22104V   24060.84350457  .00004317  00000-0  28918-3 0  9994,2 53607  53.2160 315.9837 0001525  90.4020 269.7147 15.08837184 83455,6917.889,95.438,540.809,538.699,0.0
53607.0,STARLINK-4591,PAYLOAD,2024-02-29 21:50:01,15.08847356,0.0001668,53.2166,315.686,88.5716,271.5467,5.0028e-05,5.08e-06,0.0,0 STARLINK-4591,1 53607U 22104V   24060.90973811  .00000508  00000-0  50028-4 0  9992,2 53607  53.2166 315.6860 0001668  88.5716 271.5467 15.08847356 84158,6917.858,95.437,540.877,538.569,0.0
53607.0,STARLINK-4591,PAYLOAD,2024-03-01 02:36:10,15.08848983,0.0001559,53.2165,314.7933,96.811,263.3059,0.00021805,3.185e-05,0.0,0 STARLINK-4591,1 53607U 22104V   24061.10845711  .00003185  00000-0  21805-3 0  9996,2 53607  53.2165 314.7933 0001559  96.8110 263.3059 15.08848983 83496,6917.853,95.437,540.796,538.639,0.0
53607.0,STARLINK-4591,PAYLOAD,2024-03-01 20:05:25,15.08843073,0.0001507,53.2172,311.5197,105.3272,254.7887,0.00014144,1.964e-05,0.0,0 STARLINK-4591,1 53607U 22104V   24061.83709828  .00001964  00000-0  14144-3 0  9995,2 53607  53.2172 311.5197 0001507 105.3272 254.7887 15.08843073 83600,6917.871,95.437,540.779,538.693,0.0
53607.0,STARLINK-4591,PAYLOAD,2024-03-01 21:40:48,15.08840677,0.0001401,53.2183,311.2222,107.9675,252.147,0.00015826,2.232e-05,0.0,0 STARLINK-4591,1 53607U 22104V   24061.90333861  .00002232  00000-0  15826-3 0  9990,2 53607  53.2183 311.2222 0001401 107.9675 252.1470 15.08840677 84301,6917.878,95.438,540.713,538.774,0.0
53607.0,STARLINK-4591,PAYLOAD,2024-03-01 23:16:11,15.0884805,0.0001426,53.2186,310.9251,110.8998,249.2147,1.8475e-05,6e-08,0.0,0 STARLINK-4591,1 53607U 22104V   24061.96957589  .00000006  00000-0  18475-4 0  9996,2 53607  53.2186 310.9251 0001426 110.8998 249.2147 15.08848050 84312,6917.856,95.437,540.707,538.734,0.0
53607.0,STARLINK-4591,PAYLOAD,2024-03-02 21:31:35,15.08842535,0.0001584,53.2186,306.7604,110.6259,249.4903,2.5632e-05,1.2e-06,0.0,0 STARLINK-4591,1 53607U 22104V   24062.89693754  .00000120  00000-0  25632-4 0  9990,2 53607  53.2186 306.7604 0001584 110.6259 249.4903 15.08842535 84459,6917.873,95.437,540.833,538.642,0.0
53607.0,STARLINK-4591,PAYLOAD,2024-03-03 02:17:44,15.0884364,0.0001383,53.2183,305.8697,97.0924,263.0226,1.6818e-05,-2e-07,0.0,0 STARLINK-4591,1 53607U 22104V   24063.09565708 -.00000020  00000-0  16818-4 0  9996,2 53607  53.2183 305.8697 0001383  97.0924 263.0226 15.08843640 83796,6917.869,95.437,540.691,538.778,0.0
53607.0,STARLINK-4591,PAYLOAD,2024-03-03 19:46:59,15.08841728,0.0001234,53.2177,302.5966,88.2481,271.8653,2.698e-06,-2.45e-06,0.0,0 STARLINK-4591,1 53607U 22104V   24063.82429994 -.00000245  00000-0  26980-5 0  9994,2 53607  53.2177 302.5966 0001234  88.2481 271.8653 15.08841728 84592,6917.875,95.437,540.594,538.886,0.0
53607.0,STARLINK-4591,PAYLOAD,2024-03-04 08:30:03,15.08850933,0.0001576,53.2181,300.2178,69.1441,290.972,0.00014584,2.034e-05,0.0,0 STARLINK-4591,1 53607U 22104V   24064.35421172  .00002034  00000-0  14584-3 0  9995,2 53607  53.2181 300.2178 0001576  69.1441 290.9720 15.08850933 83987,6917.847,95.437,540.802,538.622,0.0
53607.0,STARLINK-4591,PAYLOAD,2024-03-04 22:48:31,15.08857607,0.0001262,53.2169,297.5465,90.4978,269.6159,0.00023823,3.507e-05,0.0,0 STARLINK-4591,1 53607U 22104V   24064.95036652  .00003507  00000-0  23823-3 0  9998,2 53607  53.2169 297.5465 0001262  90.4978 269.6159 15.08857607 84765,6917.827,95.436,540.565,538.819,0.0
53607.0,STARLINK-4591,PAYLOAD,2024-03-05 00:23:54,15.08860604,0.0001336,53.2171,297.2496,96.6935,263.4209,0.00033291,5.017e-05,0.0,0 STARLINK-4591,1 53607U 22104V   24065.01660572  .00005017  00000-0  33291-3 0  9998,2 53607  53.2171 297.2496 0001336  96.6935 263.4209 15.08860604 84772,6917.817,95.436,540.607,538.758,0.0
